Orbit 1
Satellite Number: 99999
Line 1: 1 99999U 20042A   26027.09403507  .00000000  00000-0  10000-4 0  9993
Line 2: 2 99999  97.6086  80.9645 0035029 188.4237 277.4123 15.27801606  1000
Keplerian Elements:
  Semi-major axis (a): 6857.484654 km
  Eccentricity (e): 0.003503
  Inclination (i): 97.608600 deg
  Argument of Perigee (ω): 188.423700 deg
  RAAN (Ω): 80.964500 deg
--------------------------------------------------
Orbit 2
Satellite Number: 64169
Line 1: 1 64169U 25112Z   26027.14626108  .00007362  00000-0  51382-3 0  9992
Line 2: 2 64169  97.6055  80.5159 0000570 104.9408 255.1882 15.05655719 37056
Keplerian Elements:
  Semi-major axis (a): 6924.622027 km
  Eccentricity (e): 0.000057
  Inclination (i): 97.605500 deg
  Argument of Perigee (ω): 104.940800 deg
  RAAN (Ω): 80.515900 deg
--------------------------------------------------
Orbit 3
Satellite Number: 64147
Line 1: 1 64147U 25112B   26027.10750001  .00013005  00000-0  90350-3 0  9993
Line 2: 2 64147  97.6021  80.5605 0000287  13.6564 346.4671 15.05663945 37055
Keplerian Elements:
  Semi-major axis (a): 6924.596635 km
  Eccentricity (e): 0.000029
  Inclination (i): 97.602100 deg
  Argument of Perigee (ω): 13.656400 deg
  RAAN (Ω): 80.560500 deg
--------------------------------------------------
Orbit 4
Satellite Number: 64146
Line 1: 1 64146U 25112A   26027.13241920  .00006361  00000-0  44480-3 0  9990
Line 2: 2 64146  97.6041  80.5250 0001563  88.9821 271.1585 15.05640218 37057
Keplerian Elements:
  Semi-major axis (a): 6924.669534 km
  Eccentricity (e): 0.000156
  Inclination (i): 97.604100 deg
  Argument of Perigee (ω): 88.982100 deg
  RAAN (Ω): 80.525000 deg
--------------------------------------------------
